[{"OBJECT_NAME":"FALCONSAT-6","OBJECT_ID":"2018-099BK","EPOCH":"2026-03-09T17:24:38.352096","MEAN_MOTION":15.26532865,"ECCENTRICITY":0.00143698,"INCLINATION":97.3865,"RA_OF_ASC_NODE":145.8165,"ARG_OF_PERICENTER":297.0944,"MEAN_ANOMALY":181.0714,"EPHEMERIS_TYPE":0,"CLASSIFICATION_TYPE":"U","NORAD_CAT_ID":43815,"ELEMENT_SET_NO":999,"REV_AT_EPOCH":39855,"BSTAR":0.00019476898,"MEAN_MOTION_DOT":5.029e-5,"MEAN_MOTION_DDOT":0},{"OBJECT_NAME":"STARLINK-32497","OBJECT_ID":"2024-224Y","EPOCH":"2026-03-09T07:31:50.026944","MEAN_MOTION":15.27587021,"ECCENTRICITY":9.983e-5,"INCLINATION":42.9993,"RA_OF_ASC_NODE":163.5927,"ARG_OF_PERICENTER":178.3372,"MEAN_ANOMALY":181.7484,"EPHEMERIS_TYPE":0,"CLASSIFICATION_TYPE":"U","NORAD_CAT_ID":62161,"ELEMENT_SET_NO":999,"REV_AT_EPOCH":7237,"BSTAR":0.00093672831,"MEAN_MOTION_DOT":0.0002561,"MEAN_MOTION_DDOT":0}]
