FALCONSAT-6             
1 43815U 18099BK  26068.72544389  .00005029  00000+0  19477-3 0  9998
2 43815  97.3865 145.8165 0014370 297.0944 181.0714 15.26532865398556
STARLINK-32497          
1 62161U 24224Y   26068.31377346  .00025610  00000+0  93673-3 0  9990
2 62161  42.9993 163.5927 0000998 178.3372 181.7484 15.27587021 72374
